ONEWEB-0597             
1 54663U 22166X   25192.57698111  .00000092  00000+0  19159-3 0  9996
2 54663  87.9281 311.9344 0001908 105.3910 254.7435 13.21825022126547
ONEWEB-0600             
1 54664U 22166Y   25192.78673240 -.00000079  00000+0 -22263-3 0  9993
2 54664  87.9265 311.8917 0002008 104.2841 255.8516 13.21824434127019
ONEWEB-0601             
1 54665U 22166Z   25192.77884849 -.00000019  00000+0 -76694-4 0  9994
2 54665  87.9280 311.9055 0001712 109.0172 251.1148 13.21825149126734
ONEWEB-0602             
1 54666U 22166AA  25192.59275345  .00000055  00000+0  10126-3 0  9995
2 54666  87.9282 311.9428 0001984 107.8000 252.3351 13.21824898127020
ONEWEB-0603             
1 54667U 22166AB  25192.74889813 -.00000006  00000+0 -45646-4 0  9998
2 54667  87.9259 311.8514 0001855 107.8372 252.2964 13.21826020126509
ONEWEB-0604             
1 54668U 22166AC  25193.03905822  .00000085  00000+0  17354-3 0  9990
2 54668  87.9273 311.8138 0002004 107.0576 253.0778 13.21824505126972
ONEWEB-0605             
1 54669U 22166AD  25192.80564764  .00000150  00000+0  33272-3 0  9991
2 54669  87.9277 311.8909 0001332 113.9844 246.1429 13.21825556126546
ONEWEB-0606             
1 54670U 22166AE  25192.75203975  .00000043  00000+0  72635-4 0  9999
2 54670  87.9277 311.9128 0001987  95.3186 264.8175 13.21824708126598
